{"type": "FeatureCollection", "features": [ {"type": "Feature", "properties": {"norad_id": 40315, "name": "COSMOS 2501 (702K)", "group": "gnss", "lat": -8.145474284289978, "lon": 20.966694004450957, "alt_km": 19081.95244027172, "timestamp": "2025-12-10T21:43:22.330765+00:00", "meta": {"OBJECT_NAME": "COSMOS 2501 (702K)", "OBJECT_ID": "2014-075A", "EPOCH": "2025-12-07T20:13:51.362112", "MEAN_MOTION": 2.13101338, "ECCENTRICITY": 0.00201356, "INCLINATION": 63.6139, "RA_OF_ASC_NODE": 196.9947, "ARG_OF_PERICENTER": 204.4913, "MEAN_ANOMALY": 155.4908, "EPHEMERIS_TYPE": 0, "CLASSIFICATION_TYPE": "U", "NORAD_CAT_ID": 40315, "ELEMENT_SET_NO": 999, "REV_AT_EPOCH": 8577, "BSTAR": 0, "MEAN_MOTION_DOT": 5.4e-07, "MEAN_MOTION_DDOT": 0}, "tle": {"line1": "1 40315U 14075A   25341.84295558  .00000054  00000+0  00000+0 0  9998", "line2": "2 40315  63.6139 196.9947 0020135 204.4913 155.4908  2.13101338 85773"}}, "geometry": {"type": "Point", "coordinates": [20.966694004450957, -8.145474284289978]}}, {"type": "Feature", "properties": {"norad_id": 40534, "name": "GPS BIIF-9  (PRN 26)", "group": "gnss", "lat": -34.24391450130215, "lon": 62.59958744376729, "alt_km": 20469.180238864265, "timestamp": "2025-12-10T21:43:22.330781+00:00", "meta": {"OBJECT_NAME": "GPS BIIF-9  (PRN 26)", "OBJECT_ID": "2015-013A", "EPOCH": "2025-12-10T02:18:43.739712", "MEAN_MOTION": 2.0056274, "ECCENTRICITY": 0.010694, "INCLINATION": 53.1981, "RA_OF_ASC_NODE": 211.9997, "ARG_OF_PERICENTER": 38.4152, "MEAN_ANOMALY": 322.4192, "EPHEMERIS_TYPE": 0, "CLASSIFICATION_TYPE": "U", "NORAD_CAT_ID": 40534, "ELEMENT_SET_NO": 999, "REV_AT_EPOCH": 7803, "BSTAR": 0, "MEAN_MOTION_DOT": 1.5e-07, "MEAN_MOTION_DDOT": 0}, "tle": {"line1": "1 40534U 15013A   25344.09633958  .00000015  00000+0  00000+0 0  9991", "line2": "2 40534  53.1981 211.9997 0106940  38.4152 322.4192  2.00562740 78033"}}, "geometry": {"type": "Point", "coordinates": [62.59958744376729, -34.24391450130215]}}, {"type": "Feature", "properties": {"norad_id": 40544, "name": "GSAT0203 (GALILEO 7)", "group": "gnss", "lat": -7.244798896915215, "lon": -18.038020161281565, "alt_km": 23220.03611268611, "timestamp": "2025-12-10T21:43:22.330793+00:00", "meta": {"OBJECT_NAME": "GSAT0203 (GALILEO 7)", "OBJECT_ID": "2015-017A", "EPOCH": "2025-12-07T23:40:17.785344", "MEAN_MOTION": 1.70475803, "ECCENTRICITY": 0.00065197, "INCLINATION": 56.8473, "RA_OF_ASC_NODE": 346.8097, "ARG_OF_PERICENTER": 270.7442, "MEAN_ANOMALY": 89.1988, "EPHEMERIS_TYPE": 0, "CLASSIFICATION_TYPE": "U", "NORAD_CAT_ID": 40544, "ELEMENT_SET_NO": 999, "REV_AT_EPOCH": 6594, "BSTAR": 0, "MEAN_MOTION_DOT": -8.6e-07, "MEAN_MOTION_DDOT": 0}, "tle": {"line1": "1 40544U 15017A   25341.98631696 -.00000086  00000+0  00000+0 0  9997", "line2": "2 40544  56.8473 346.8097 0006519 270.7442  89.1988  1.70475803 65948"}}, "geometry": {"type": "Point", "coordinates": [-18.038020161281565, -7.244798896915215]}}, {"type": "Feature", "properties": {"norad_id": 40545, "name": "GSAT0204 (GALILEO 8)", "group": "gnss", "lat": -12.066250510181344, "lon": 174.77632063331706, "alt_km": 23216.680948380967, "timestamp": "2025-12-10T21:43:22.330806+00:00", "meta": {"OBJECT_NAME": "GSAT0204 (GALILEO 8)", "OBJECT_ID": "2015-017B", "EPOCH": "2025-12-08T05:48:09.490464", "MEAN_MOTION": 1.70475483, "ECCENTRICITY": 0.00062708, "INCLINATION": 56.8542, "RA_OF_ASC_NODE": 346.8204, "ARG_OF_PERICENTER": 261.7403, "MEAN_ANOMALY": 98.2059, "EPHEMERIS_TYPE": 0, "CLASSIFICATION_TYPE": "U", "NORAD_CAT_ID": 40545, "ELEMENT_SET_NO": 999, "REV_AT_EPOCH": 2899, "BSTAR": 0, "MEAN_MOTION_DOT": -8.6e-07, "MEAN_MOTION_DDOT": 0}, "tle": {"line1": "1 40545U 15017B   25342.24177651 -.00000086  00000+0  00000+0 0  9994", "line2": "2 40545  56.8542 346.8204 0006270 261.7403  98.2059  1.70475483 28995"}}, "geometry": {"type": "Point", "coordinates": [174.77632063331706, -12.066250510181344]}}, {"type": "Feature", "properties": {"norad_id": 40549, "name": "BEIDOU-3S IGSO-1S (C31)", "group": "gnss", "lat": -16.57900851805721, "lon": 132.39006303283347, "alt_km": 35629.4493638791, "timestamp": "2025-12-10T21:43:22.330817+00:00", "meta": {"OBJECT_NAME": "BEIDOU-3S IGSO-1S (C31)", "OBJECT_ID": "2015-019A", "EPOCH": "2025-12-07T20:38:38.671584", "MEAN_MOTION": 1.00293516, "ECCENTRICITY": 0.00368211, "INCLINATION": 49.562, "RA_OF_ASC_NODE": 297.7693, "ARG_OF_PERICENTER": 193.8977, "MEAN_ANOMALY": 348.5751, "EPHEMERIS_TYPE": 0, "CLASSIFICATION_TYPE": "U", "NORAD_CAT_ID": 40549, "ELEMENT_SET_NO": 999, "REV_AT_EPOCH": 3915, "BSTAR": 0, "MEAN_MOTION_DOT": -1.86e-06, "MEAN_MOTION_DDOT": 0}, "tle": {"line1": "1 40549U 15019A   25341.86016981 -.00000186  00000+0  00000+0 0  9996", "line2": "2 40549  49.5620 297.7693 0036821 193.8977 348.5751  1.00293516 39155"}}, "geometry": {"type": "Point", "coordinates": [132.39006303283347, -16.57900851805721]}}, {"type": "Feature", "properties": {"norad_id": 40730, "name": "GPS BIIF-10 (PRN 08)", "group": "gnss", "lat": 49.884101545023746, "lon": 35.7890119547078, "alt_km": 20135.19240154086, "timestamp": "2025-12-10T21:43:22.330829+00:00", "meta": {"OBJECT_NAME": "GPS BIIF-10 (PRN 08)", "OBJECT_ID": "2015-033A", "EPOCH": "2025-12-10T06:11:03.123456", "MEAN_MOTION": 2.00565727, "ECCENTRICITY": 0.01108197, "INCLINATION": 54.1328, "RA_OF_ASC_NODE": 274.875, "ARG_OF_PERICENTER": 26.7522, "MEAN_ANOMALY": 333.8328, "EPHEMERIS_TYPE": 0, "CLASSIFICATION_TYPE": "U", "NORAD_CAT_ID": 40730, "ELEMENT_SET_NO": 999, "REV_AT_EPOCH": 7620, "BSTAR": 0, "MEAN_MOTION_DOT": -5.9e-07, "MEAN_MOTION_DDOT": 0}, "tle": {"line1": "1 40730U 15033A   25344.25767504 -.00000059  00000+0  00000+0 0  9993", "line2": "2 40730  54.1328 274.8750 0110819  26.7522 333.8328  2.00565727 76205"}}, "geometry": {"type": "Point", "coordinates": [35.7890119547078, 49.884101545023746]}}, {"type": "Feature", "properties": {"norad_id": 40748, "name": "BEIDOU-3S M2S (C58)", "group": "gnss", "lat": 27.737911721265853, "lon": -29.920154726376982, "alt_km": 21545.81410141645, "timestamp": "2025-12-10T21:43:22.330840+00:00", "meta": {"OBJECT_NAME": "BEIDOU-3S M2S (C58)", "OBJECT_ID": "2015-037A", "EPOCH": "2025-12-09T05:49:19.735392", "MEAN_MOTION": 1.86228936, "ECCENTRICITY": 0.00124384, "INCLINATION": 55.042, "RA_OF_ASC_NODE": 308.5839, "ARG_OF_PERICENTER": 267.3919, "MEAN_ANOMALY": 92.4547, "EPHEMERIS_TYPE": 0, "CLASSIFICATION_TYPE": "U", "NORAD_CAT_ID": 40748, "ELEMENT_SET_NO": 999, "REV_AT_EPOCH": 7058, "BSTAR": 0, "MEAN_MOTION_DOT": -7.5e-07, "MEAN_MOTION_DDOT": 0}, "tle": {"line1": "1 40748U 15037A   25343.24258953 -.00000075  00000+0  00000+0 0  9995", "line2": "2 40748  55.0420 308.5839 0012438 267.3919  92.4547  1.86228936 70588"}}, "geometry": {"type": "Point", "coordinates": [-29.920154726376982, 27.737911721265853]}}, {"type": "Feature", "properties": {"norad_id": 40749, "name": "BEIDOU-3S M1S (C57)", "group": "gnss", "lat": -45.294046087380515, "lon": 173.4448264727195, "alt_km": 21535.378379659396, "timestamp": "2025-12-10T21:43:22.330852+00:00", "meta": {"OBJECT_NAME": "BEIDOU-3S M1S (C57)", "OBJECT_ID": "2015-037B", "EPOCH": "2025-12-08T22:28:18.289056", "MEAN_MOTION": 1.86253835, "ECCENTRICITY": 0.0003421, "INCLINATION": 55.0388, "RA_OF_ASC_NODE": 308.5837, "ARG_OF_PERICENTER": 357.7489, "MEAN_ANOMALY": 2.238, "EPHEMERIS_TYPE": 0, "CLASSIFICATION_TYPE": "U", "NORAD_CAT_ID": 40749, "ELEMENT_SET_NO": 999, "REV_AT_EPOCH": 7058, "BSTAR": 0, "MEAN_MOTION_DOT": -7.4e-07, "MEAN_MOTION_DDOT": 0}, "tle": {"line1": "1 40749U 15037B   25342.93632279 -.00000074  00000+0  00000+0 0  9997", "line2": "2 40749  55.0388 308.5837 0003421 357.7489   2.2380  1.86253835 70588"}}, "geometry": {"type": "Point", "coordinates": [173.4448264727195, -45.294046087380515]}}, {"type": "Feature", "properties": {"norad_id": 40889, "name": "GSAT0205 (GALILEO 9)", "group": "gnss", "lat": -18.979641883720355, "lon": -147.11228571124224, "alt_km": 23216.72219792678, "timestamp": "2025-12-10T21:43:22.330865+00:00", "meta": {"OBJECT_NAME": "GSAT0205 (GALILEO 9)", "OBJECT_ID": "2015-045A", "EPOCH": "2025-12-10T08:33:32.149440", "MEAN_MOTION": 1.7047308, "ECCENTRICITY": 0.00059037, "INCLINATION": 55.0041, "RA_OF_ASC_NODE": 226.8242, "ARG_OF_PERICENTER": 38.7722, "MEAN_ANOMALY": 321.3515, "EPHEMERIS_TYPE": 0, "CLASSIFICATION_TYPE": "U", "NORAD_CAT_ID": 40889, "ELEMENT_SET_NO": 999, "REV_AT_EPOCH": 6379, "BSTAR": 0, "MEAN_MOTION_DOT": 9e-08, "MEAN_MOTION_DDOT": 0}, "tle": {"line1": "1 40889U 15045A   25344.35662210  .00000009  00000+0  00000+0 0  9994", "line2": "2 40889  55.0041 226.8242 0005903  38.7722 321.3515  1.70473080 63793"}}, "geometry": {"type": "Point", "coordinates": [-147.11228571124224, -18.979641883720355]}}, {"type": "Feature", "properties": {"norad_id": 40890, "name": "GSAT0206 (GALILEO 10)", "group": "gnss", "lat": -17.308280659877923, "lon": 59.41144886472571, "alt_km": 23235.646039284544, "timestamp": "2025-12-10T21:43:22.330876+00:00", "meta": {"OBJECT_NAME": "GSAT0206 (GALILEO 10)", "OBJECT_ID": "2015-045B", "EPOCH": "2025-12-09T23:46:35.187456", "MEAN_MOTION": 1.70473081, "ECCENTRICITY": 0.0003825, "INCLINATION": 55.0033, "RA_OF_ASC_NODE": 226.8293, "ARG_OF_PERICENTER": 36.5835, "MEAN_ANOMALY": 323.5254, "EPHEMERIS_TYPE": 0, "CLASSIFICATION_TYPE": "U", "NORAD_CAT_ID": 40890, "ELEMENT_SET_NO": 999, "REV_AT_EPOCH": 6381, "BSTAR": 0, "MEAN_MOTION_DOT": 9e-08, "MEAN_MOTION_DDOT": 0}, "tle": {"line1": "1 40890U 15045B   25343.99068504  .00000009  00000+0  00000+0 0  9991", "line2": "2 40890  55.0033 226.8293 0003825  36.5835 323.5254  1.70473081 63812"}}, "geometry": {"type": "Point", "coordinates": [59.41144886472571, -17.308280659877923]}}]}